NORAD_CAT_ID,EPOCH,MEAN_MOTION,ECCENTRICITY,INCLINATION,RA_OF_ASC_NODE,ARG_OF_PERICENTER,MEAN_ANOMALY,SEMIMAJOR_AXIS,PERIOD,APOGEE,PERIGEE
14734,11/15/2019 19:20,14.354486,0.0003932,98.5426,257.9983,268.6835,91.39,7151.712,100.317,776.39,770.765
22618,11/15/2019 19:20,14.39853679,0.0022898,86.399,66.5278,9.0893,117.8001,7137.118,100.01,775.326,742.641
23070,11/15/2019 19:20,14.57127587,0.0001072,98.2144,32.422,79.0842,281.0451,7080.6,98.824,703.225,701.706
30479,11/15/2019 19:20,14.79909397,0.0016611,97.7823,29.3011,352.4087,7.6864,7007.747,97.303,641.252,617.971
97052,11/15/2019 19:20,14.23083499,0.0096431,98.8046,346.6884,25.1789,28.6882,7193.08,101.188,884.309,745.581
98316,11/15/2019 19:20,15.15664011,0.0004937,97.5139,343.7189,294.1617,65.9099,6897.1,95.007,522.37,515.56
49242,11/15/2019 19:21,14.64194694,0.0027782,98.1014,20.3062,333.1187,26.8565,7057.799,98.347,699.272,660.056
2976,11/15/2019 19:22,14.72126485,0.0008282,98.0023,43.3205,298.0372,62,7032.424,97.817,660.113,648.465
9657,11/15/2019 19:22,14.28393345,0.00723,74.0182,80.35,56.8011,63.4838,7175.243,100.812,848.985,745.231
13351,11/15/2019 19:22,14.71052598,0.0001791,97.762,181.764,84.4484,275.6928,7035.846,97.889,658.971,656.451
14677,11/15/2019 19:22,15.20461714,0.0050521,98.0023,272.3368,166.6011,193.6577,6882.583,94.708,539.22,469.677
35923,11/15/2019 19:22,13.88314321,0.0332869,99.2003,239.8755,324.4803,97.6542,7312.681,103.722,1177.962,691.129
40173,11/15/2019 19:22,14.3266306,0.0030974,82.8778,200.3484,162.8175,197.4069,7160.98,100.512,805.025,760.664
62835,11/15/2019 19:22,13.89632899,0.0017731,82.955,327.0776,264.777,95.1373,7308.054,103.624,942.877,916.961
3612,11/15/2019 19:23,13.42420523,0.0205572,83.0972,221.1603,323.1234,98.4132,7478.413,107.268,1254.013,946.542
21493,11/15/2019 19:23,14.57113278,0.0012573,98.2121,32.278,120.7868,239.4567,7080.647,98.825,711.414,693.609
69568,11/15/2019 19:23,13.83990474,0.0149259,99.3978,264.4142,113.9484,301.1473,7327.904,104.046,1059.144,840.393
99574,11/15/2019 19:23,14.59022032,0.0080067,98.0967,265.7277,325.758,33.8471,7074.47,98.696,752.978,639.692
10208,11/15/2019 19:24,4.28616635,0.584227,48.0713,172.3541,190.7734,147.3362,16008.691,335.964,18983.265,277.846
14415,11/15/2019 19:24,4.26068681,0.5557108,65.559,186.3456,105.9323,319.4987,16072.45,337.973,18625.95,762.681
24605,11/15/2019 19:24,14.80023503,0.0063202,86.4273,76.327,202.508,157.3368,7007.386,97.295,673.54,584.963
38977,11/15/2019 19:24,14.05963812,0.0077413,99.05,264.9171,67.7568,293.1787,7251.353,102.42,929.353,817.083
67558,11/15/2019 19:24,14.9874423,0.0022087,97.6682,40.4492,352.2466,7.8393,6948.912,96.08,586.125,555.429
79968,11/15/2019 19:24,13.01329968,0.0195998,102.2751,251.7333,148.0187,277.2923,7635.02,110.656,1406.53,1107.24
6792,11/15/2019 19:25,13.75573245,0.0032082,82.9352,63.4263,11.6941,98.2956,7357.766,104.683,1003.237,956.026
24477,11/15/2019 19:25,13.72168697,0.0010424,65.8227,105.7397,355.6892,105.6111,7369.932,104.943,999.479,984.114
26332,11/15/2019 19:25,14.78295868,0.0025355,82.5312,186.0828,347.5128,58.5127,7012.845,97.409,652.491,616.929
39255,11/15/2019 19:25,14.68967135,0.0038942,74.0099,98.298,147.5159,333.8921,7042.504,98.028,691.794,636.944
54115,11/15/2019 19:25,4.02392824,0.6031733,7.0111,296.082,338.1973,4.3214,16696.868,357.859,20389.838,247.628
92376,11/15/2019 19:25,14.89570235,0.0003031,34.9987,225.9171,236.567,123.4744,6977.414,96.672,601.394,597.164
97172,11/15/2019 19:25,14.81949421,0.0001523,97.9196,35.2004,89.3354,270.803,7001.314,97.169,624.245,622.113
38855,11/15/2019 19:26,1.00269947,0.000298,0.041,107.6408,140.599,193.3234,42165.247,1436.123,35799.677,35774.546
82990,11/15/2019 19:26,14.34138676,0.0013621,98.5955,30.7887,58.578,301.673,7156.067,100.408,787.679,768.184
13279,11/15/2019 19:27,14.52149706,0.0037068,86.3523,53.5728,329.9435,156.4476,7096.772,99.163,744.944,692.331
30357,11/15/2019 19:27,13.72087843,0.0007386,100.0284,267.3227,48.9742,13.805,7370.221,104.949,997.53,986.643
37516,11/15/2019 19:27,14.58558653,0.0001423,98.1902,32.6636,87.8723,272.2637,7075.968,98.727,698.84,696.826
44834,11/15/2019 19:27,13.87190457,0.0013702,65.8278,97.9895,212.404,266.3446,7316.63,103.806,948.52,928.47
53738,11/15/2019 19:27,14.60196316,0.0162826,98.7967,248.0609,183.4104,240.5494,7070.677,98.616,807.671,577.413
82754,11/15/2019 19:27,13.9140871,0.0024385,99.9141,44.1154,340.4673,19.5547,7301.835,103.492,941.505,905.894
16193,11/15/2019 19:28,14.5814994,0.0026961,86.4576,93.9069,343.5912,16.4421,7077.29,98.755,718.237,680.074
34373,11/15/2019 19:28,14.90097621,0.0014499,97.8367,70.2018,272.208,87.7477,6975.767,96.637,607.747,587.518
48022,11/15/2019 19:28,14.29101136,0.026457,98.5552,350.8637,9.3633,43.1894,7172.873,100.762,984.511,604.966
49288,11/15/2019 19:28,13.76968727,0.0031363,82.9444,219.8842,97.5349,323.6925,7352.794,104.577,997.72,951.599
90497,11/15/2019 19:28,14.26554624,0.019274,98.702,355.1,124.014,237.9514,7181.407,100.942,941.686,664.858
98783,11/15/2019 19:28,13.26545819,0.0615089,97.8926,259.7205,118.3861,248.0681,7537.957,108.552,1623.473,696.17
13346,11/15/2019 19:29,15.21530795,0.0012173,97.415,71.8008,19.2608,102.2443,6879.359,94.641,509.598,492.85
22478,11/15/2019 19:29,14.75851987,0.0080997,99.9856,12.4134,343.8381,16.0241,7020.585,97.57,699.314,585.585
39826,11/15/2019 19:29,14.87766689,0.0021055,82.4218,48.745,121.3323,238.9967,6983.052,96.789,619.62,590.214
64381,11/15/2019 19:30,14.89569545,0.0006547,34.9999,105.3825,44.0317,316.0909,6977.416,96.672,603.849,594.713
68015,11/15/2019 19:30,13.70251563,0.0130018,66.7378,101.6875,149.3422,211.5327,7376.805,105.09,1094.581,902.758
72016,11/15/2019 19:30,15.24647354,0.0003217,51.6817,149.5341,87.3694,272.7653,6869.981,94.448,494.056,489.636
81115,11/15/2019 19:30,14.05639976,0.01221,99.8934,155.3662,71.1559,290.2801,7252.467,102.444,962.884,785.779
2981,11/15/2019 19:31,14.48362546,0.0225672,98.2965,4.0307,191.3402,168.2659,7109.138,99.422,891.437,570.57
10970,11/15/2019 19:31,15.019143,0,97.634,182.928,0,40.503,6939.130783,95.878,560.993783,560.993783
19150,11/15/2019 19:31,14.11161052,0.0435497,38.9359,124.7835,144.288,218.7829,7233.538,102.043,1170.421,540.384
43482,11/15/2019 19:31,14.31799291,0.0020552,65.0106,218.9799,271.8094,88.0636,7163.859,100.572,800.447,771.001
45105,11/15/2019 19:31,15.019143,0,97.747,80.054,0,74.662,6939.130783,95.878,560.993783,560.993783
76261,11/15/2019 19:31,14.87768354,0.0025679,98.0393,31.9179,213.5323,146.4268,6983.046,96.789,622.843,586.98
4928,11/15/2019 19:32,14.89572023,0.0005841,35.0003,225.9746,183.9123,176.1553,6977.408,96.672,603.349,595.198
22939,11/15/2019 19:32,13.80616923,0.0044561,69.8071,206.5501,169.9605,303.9792,7339.836,104.301,994.408,928.994
79097,11/15/2019 19:32,14.34111325,0.0103351,98.7014,51.5293,134.0983,226.8764,7156.158,100.41,851.982,704.063
86466,11/15/2019 19:32,8.9096869,0.0073952,91.2129,80.9186,7.4443,352.7511,9828.642,161.621,3523.192,3377.822
88756,11/15/2019 19:32,14.701818,0.002993,97.746,105.727,301.325,153.089,7038.62473,97.947,681.552524,639.422937
98601,11/15/2019 19:32,14.64258174,0.0010703,98.1191,32.5929,82.9083,277.327,7057.595,98.343,687.013,671.906
47751,11/15/2019 19:33,12.64742851,0.0073787,101.332,21.7733,251.2001,222.2773,7781.566,113.857,1460.849,1346.013
61717,11/15/2019 19:33,14.14912378,0.0057335,99.7447,269.995,225.0183,197.3573,7220.747,101.773,884.012,801.212
99674,11/15/2019 19:33,14.13793412,0.006812,98.8654,349.1916,249.6226,159.7672,7224.556,101.853,895.635,797.208
18260,11/15/2019 19:34,14.1882741,0.0018272,82.9279,82.9989,314.4278,167.6979,7207.458,101.492,842.492,816.153
34262,11/15/2019 19:34,13.70299673,0.0037719,82.9341,222.6309,239.7474,180.55,7376.632,105.086,1026.321,970.673
48286,11/15/2019 19:34,15.2319917,0.0003975,97.4034,76.3191,144.3857,333.3476,6874.335,94.537,498.932,493.467
48591,11/15/2019 19:34,12.30675399,0.0138975,73.9421,97.2811,58.7952,53.0362,7924.517,117.008,1656.513,1436.251
54674,11/15/2019 19:34,14.19280566,0.0060164,98.3384,199.0389,153.7195,206.7057,7205.923,101.459,871.142,784.435
55200,11/15/2019 19:34,2.0121038,0.7038147,63.3933,232.1165,294.6945,9.8874,26503.399,715.668,38778.747,1471.782
72941,11/15/2019 19:34,15.18926918,0.0001915,97.4505,226.1889,73.5525,12.2866,6887.219,94.803,510.403,507.765
76260,11/15/2019 19:34,14.42458465,0.0084509,98.9545,151.0856,259.6565,226.7443,7128.524,99.829,810.631,690.146
88763,11/15/2019 19:34,15.24822081,0.0008597,97.4366,23.9171,170.8284,189.3112,6869.456,94.437,497.227,485.416
24004,11/15/2019 19:35,1.00300427,0.0008227,14.5434,16.7662,171.6507,196.5077,42156.704,1435.686,35813.251,35743.887
28224,11/15/2019 19:35,14.38272323,0.001205,98.5176,12.1211,237.7848,213.1401,7142.349,100.12,772.82,755.607
28612,11/15/2019 19:35,1.00198305,0.0003722,11.1239,33.562,31.5635,324.5843,42185.343,1437.15,35822.91,35791.507
34181,11/15/2019 19:35,1.00272012,0.0004577,5.3734,31.0374,197.3717,164.3703,42164.668,1436.093,35805.832,35767.234
47344,11/15/2019 19:35,14.81636662,0.0065998,97.5837,339.6835,20.9787,339.4112,7002.299,97.189,670.378,577.95
63157,11/15/2019 19:35,1.00274489,0.0002748,0.0721,87.0632,134.2562,165.4342,42163.973,1436.058,35797.425,35774.252
63767,11/15/2019 19:35,1.00270377,0.0002561,0.04,95.2724,266.7895,29.2332,42165.126,1436.117,35797.79,35776.193
74015,11/15/2019 19:35,13.6932318,0.0016713,100.1034,17.2735,236.0127,232.6735,7380.138,105.161,1014.338,989.669
97283,11/15/2019 19:35,1.002693,0.0004319,0.0681,355.3573,232.3953,156.9688,42165.428,1436.132,35805.504,35769.082
18903,11/15/2019 19:36,11.94104023,0.0791116,100.2901,247.7646,335.2703,82.1021,8085.503,120.592,2347.025,1067.711
22251,11/15/2019 19:36,14.53863472,0.0020603,98.4255,247.552,89.0627,333.1867,7091.194,99.046,727.669,698.449
23354,11/15/2019 19:36,1.06658221,0.291194,22.0202,262.9409,147.8827,18.8895,40464.323,1350.106,45869.156,22303.22
31675,11/15/2019 19:36,13.67935152,0.0055212,100.0305,278.0027,322.4627,37.2667,7385.13,105.268,1047.77,966.22
